1 43466U 98067NP  19145.85268268  .00011705  00000-0  12036-3 0  9997
2 43466  51.6372  95.3575 0002087  60.1336 299.9867 15.65379929 59188